NOAA 15                 
1 25338U 98030A   24190.13717881  .00000300  00000+0  14224-3 0  9991
2 25338  98.5674 216.8257 0009085 262.4140  97.6009 14.26621635360426
NOAA 18                 
1 28654U 05018A   24190.16452404  .00000287  00000+0  17660-3 0  9990
2 28654  98.8743 266.9554 0014165   8.5629 351.5782 14.13247676986229
NOAA 19                 
1 33591U 09005A   24190.04808462  .00000265  00000+0  16638-3 0  9992
2 33591  99.0460 246.0670 0013084 230.4905 129.5111 14.13042357794577
METOP-B                 
1 38771U 12049A   24189.86782707  .00000206  00000+0  11384-3 0  9998
2 38771  98.6269 246.6258 0001377  83.1031 277.0303 14.21449700612480
SARAL                   
1 39086U 13009A   24189.82605628  .00000185  00000+0  84390-4 0  9991
2 39086  98.5512  14.6543 0001381 185.8380 174.2788 14.32439941594035
METOP-C                 
1 43689U 18087A   24190.18756170  .00000190  00000+0  10697-3 0  9990
2 43689  98.7225 249.2180 0002642  53.2515 306.8904 14.21486052294105
ANGELS                  
1 44876U 19092D   24189.45770646  .00006503  00000+0  24488-3 0  9995
2 44876  97.4736  18.0485 0008406 243.4363 116.6014 15.27420947252454
OTB-3-GAZELLE           
1 54023U 22127A   24189.58825722  .00000262  00000+0  92627-4 0  9990
2 54023  98.3432 183.4390 0013597 164.5215 195.6394 14.42128217 92068
EOS-6 (OCEANSAT-3)      
1 54361U 22158A   24190.03866562  .00000542  00000+0  16115-3 0  9996
2 54361  98.3539 286.7876 0001873 107.0596 253.0801 14.46974950 85280
